[
    {
        "Altitude(m)": 604221.2188467456,
        "Argument of Periapsis(deg)": 0.0,
        "Eccentricity": 0.0,
        "Inclination(deg)": 60.0,
        "Latitude(deg)": 14.117328654147707,
        "Longitude(deg)": 33.33412528068486,
        "Mean Anomaly(deg)": 16.363600000000012,
        "RAAN(deg)": 125.00000000000001,
        "Satellite Name": "Test1 551",
        "Satellite Number": 551,
        "Semi-Major Axis(m)": 6980739.136638005,
        "Time(s)": 0
    },
    {
        "Altitude(m)": 604235.3603662215,
        "Argument of Periapsis(deg)": 0.00010418945913296404,
        "Eccentricity": 0.0,
        "Inclination(deg)": 60.0,
        "Latitude(deg)": 14.651725989850336,
        "Longitude(deg)": 33.62257120577664,
        "Mean Anomaly(deg)": 16.983706145461838,
        "RAAN(deg)": 124.99957995086027,
        "Satellite Name": "Test1 551",
        "Satellite Number": 551,
        "Semi-Major Axis(m)": 6980739.136638005,
        "Time(s)": 10
    }
]